ION SCV-004             
1 50993U 22002K   26068.68892644  .00006538  00000+0  23198-3 0  9998
2 50993  97.2961 128.2294 0007216   1.6783 358.4480 15.29369331230088
STARLINK-33839          
1 64113U 25110T   26068.16124628  .00030434  00000+0  10355-2 0  9995
2 64113  53.1613  29.0665 0001083  85.5068 274.6057 15.30198575 45800
