[{"OBJECT_NAME":"ION SCV-004","OBJECT_ID":"2022-002K","EPOCH":"2026-03-09T16:32:03.244416","MEAN_MOTION":15.29369331,"ECCENTRICITY":0.00072157,"INCLINATION":97.2961,"RA_OF_ASC_NODE":128.2294,"ARG_OF_PERICENTER":1.6783,"MEAN_ANOMALY":358.448,"EPHEMERIS_TYPE":0,"CLASSIFICATION_TYPE":"U","NORAD_CAT_ID":50993,"ELEMENT_SET_NO":999,"REV_AT_EPOCH":23008,"BSTAR":0.00023198467,"MEAN_MOTION_DOT":6.538e-5,"MEAN_MOTION_DDOT":0},{"OBJECT_NAME":"STARLINK-33839","OBJECT_ID":"2025-110T","EPOCH":"2026-03-09T03:52:11.678592","MEAN_MOTION":15.30198575,"ECCENTRICITY":0.00010831,"INCLINATION":53.1613,"RA_OF_ASC_NODE":29.0665,"ARG_OF_PERICENTER":85.5068,"MEAN_ANOMALY":274.6057,"EPHEMERIS_TYPE":0,"CLASSIFICATION_TYPE":"U","NORAD_CAT_ID":64113,"ELEMENT_SET_NO":999,"REV_AT_EPOCH":4580,"BSTAR":0.0010355119,"MEAN_MOTION_DOT":0.00030434,"MEAN_MOTION_DDOT":0}]
